{
  "weatherObservations" : [
    {
      "clouds" : "n/a" ,
      "weatherCondition" : "n/a" ,
      "observation" : "KAJO 140856Z AUTO 00000KT 10SM CLR 08/06 A3004 RMK AO2 53002 T00770061 SLP169 $" ,
      "windDirection" : 0 ,
      "ICAO" : "KAJO" ,
      "seaLevelPressure" : 1016.9 ,
      "lng" : -117.6 ,
      "temperature" : "7.7" ,
      "dewPoint" : "6.1" ,
      "windSpeed" : "00" ,
      "humidity" : 89 ,
      "stationName" : "CORONA MUNI" ,
      "datetime" : "2014-03-14 08:56:00" ,
      "lat" : 33.9
    } , {
      "clouds" : "n/a" ,
      "weatherCondition" : "n/a" ,
      "observation" : "KDIJ 140856Z AUTO 11005KT 10SM CLR M06/M10 A3006 RMK AO2 58002 T10611100 SLP174" ,
      "windDirection" : 110 ,
      "ICAO" : "KDIJ" ,
      "seaLevelPressure" : 1017.4 ,
      "lng" : -111.1 ,
      "temperature" : "-6.1" ,
      "dewPoint" : "-10" ,
      "windSpeed" : "05" ,
      "humidity" : 73 ,
      "stationName" : "DRIGGS REED MEM" ,
      "datetime" : "2014-03-14 08:56:00" ,
      "lat" : 43.75
    } , {
      "clouds" : "n/a" ,
      "weatherCondition" : "n/a" ,
      "observation" : "KEIK 140856Z AUTO 20006KT 10SM CLR M01/M06 A3002 RMK AO2 T10091062" ,
      "windDirection" : 200 ,
      "ICAO" : "KEIK" ,
      "lng" : -105.05 ,
      "temperature" : "-0.9" ,
      "dewPoint" : "-6.2" ,
      "windSpeed" : "06" ,
      "humidity" : 67 ,
      "stationName" : "ERIE MUNI" ,
      "datetime" : "2014-03-14 08:56:00" ,
      "lat" : 40.016666666666666
    } , {
      "clouds" : "scattered clouds" ,
      "weatherCondition" : "n/a" ,
      "observation" : "KHWV 140856Z AUTO 29006KT 10SM SCT095 M07/M14 A3016 RMK AO2 SLP214 T10721144 53017 TSNO" ,
      "windDirection" : 290 ,
      "ICAO" : "KHWV" ,
      "seaLevelPressure" : 1021.4 ,
      "cloudsCode" : "SCT" ,
      "lng" : -72.86666666666666 ,
      "temperature" : "-7.2" ,
      "dewPoint" : "-14.4" ,
      "windSpeed" : "06" ,
      "humidity" : 56 ,
      "stationName" : "SHIRLEY" ,
      "datetime" : "2014-03-14 08:56:00" ,
      "lat" : 40.81666666666667
    } , {
      "clouds" : "few clouds" ,
      "weatherCondition" : "n/a" ,
      "observation" : "KM63 140856Z AUTO 00000KT 12SM FEW075 BKN090 13/M05 A2994 RMK AO2 SLP092 T01331050 56010" ,
      "windDirection" : 0 ,
      "ICAO" : "KM63" ,
      "seaLevelPressure" : 1009.2 ,
      "cloudsCode" : "FEW" ,
      "lng" : -106.15 ,
      "temperature" : "13.3" ,
      "dewPoint" : "-5" ,
      "windSpeed" : "00" ,
      "humidity" : 27 ,
      "stationName" : "MCGREGOR RANGE" ,
      "datetime" : "2014-03-14 08:56:00" ,
      "lat" : 32.05
    } , {
      "clouds" : "n/a" ,
      "weatherCondition" : "n/a" ,
      "observation" : "KNXF 140856Z AUTO 07004KT 8SM CLR 11/08 A3002 RMK AO2 SLP253 T01110083 51001" ,
      "windDirection" : 70 ,
      "ICAO" : "KNXF" ,
      "seaLevelPressure" : 1025.3 ,
      "lng" : -117.45 ,
      "temperature" : "11.1" ,
      "dewPoint" : "8.3" ,
      "windSpeed" : "04" ,
      "humidity" : 82 ,
      "stationName" : "OCEANSIDE/RED-B" ,
      "datetime" : "2014-03-14 08:56:00" ,
      "lat" : 33.28333333333333
    } , {
      "clouds" : "n/a" ,
      "weatherCondition" : "n/a" ,
      "observation" : "KPRN 140856Z AUTO 00000KT 10SM CLR 01/M01 A3021 RMK AO2 SLP232 T00111011 58007 FZRANO " ,
      "windDirection" : 0 ,
      "ICAO" : "KPRN" ,
      "seaLevelPressure" : 1023.2 ,
      "lng" : -86.61666666666666 ,
      "temperature" : "1.1" ,
      "dewPoint" : "-1.1" ,
      "windSpeed" : "00" ,
      "humidity" : 85 ,
      "stationName" : "GREENVILLE" ,
      "datetime" : "2014-03-14 08:56:00" ,
      "lat" : 31.85
    } , {
      "clouds" : "n/a" ,
      "weatherCondition" : "n/a" ,
      "observation" : "KTDR 140856Z AUTO 08006KT 12SM CLR 07/02 A3022 RMK AO2 SLP237 T00740022 58002" ,
      "windDirection" : 80 ,
      "ICAO" : "KTDR" ,
      "seaLevelPressure" : 1023.7 ,
      "lng" : -85.51666666666667 ,
      "temperature" : "7.4" ,
      "dewPoint" : "2.2" ,
      "windSpeed" : "06" ,
      "humidity" : 69 ,
      "stationName" : "TYNDALL DRONE" ,
      "datetime" : "2014-03-14 08:56:00" ,
      "lat" : 30.05
    } , {
      "clouds" : "n/a" ,
      "weatherCondition" : "n/a" ,
      "observation" : "K05U 140855Z AUTO 19003KT 10SM CLR M03/M10 A3012 RMK AO1" ,
      "windDirection" : 190 ,
      "ICAO" : "K05U" ,
      "lng" : -116 ,
      "temperature" : "-3" ,
      "dewPoint" : "-10" ,
      "windSpeed" : "03" ,
      "humidity" : 58 ,
      "stationName" : "EUREKA" ,
      "datetime" : "2014-03-14 08:55:00" ,
      "lat" : 39.6
    } , {
      "clouds" : "n/a" ,
      "weatherCondition" : "n/a" ,
      "observation" : "K0A9 140855Z AUTO 00000KT 10SM CLR M04/M11 A3023 RMK" ,
      "windDirection" : 0 ,
      "ICAO" : "K0A9" ,
      "lng" : -82.16666666666667 ,
      "temperature" : "-4" ,
      "dewPoint" : "-11" ,
      "windSpeed" : "00" ,
      "humidity" : 58 ,
      "stationName" : "ELIZABETHTON" ,
      "datetime" : "2014-03-14 08:55:00" ,
      "lat" : 36.36666666666667
    }
  ]
}